[{"OBJECT_NAME":"HAWK-7C","OBJECT_ID":"2023-054Y","EPOCH":"2026-03-09T16:32:02.440032","MEAN_MOTION":15.26207266,"ECCENTRICITY":0.00036507,"INCLINATION":97.2829,"RA_OF_ASC_NODE":317.5849,"ARG_OF_PERICENTER":52.209,"MEAN_ANOMALY":307.9479,"EPHEMERIS_TYPE":0,"CLASSIFICATION_TYPE":"U","NORAD_CAT_ID":56200,"ELEMENT_SET_NO":999,"REV_AT_EPOCH":16184,"BSTAR":0.0003098019,"MEAN_MOTION_DOT":7.947e-5,"MEAN_MOTION_DDOT":0},{"OBJECT_NAME":"STARLINK-35505","OBJECT_ID":"2025-253L","EPOCH":"2026-03-09T10:08:53.129760","MEAN_MOTION":15.27569144,"ECCENTRICITY":0.00047721,"INCLINATION":42.9995,"RA_OF_ASC_NODE":214.0137,"ARG_OF_PERICENTER":296.1544,"MEAN_ANOMALY":63.8817,"EPHEMERIS_TYPE":0,"CLASSIFICATION_TYPE":"U","NORAD_CAT_ID":66329,"ELEMENT_SET_NO":999,"REV_AT_EPOCH":2020,"BSTAR":0.00089052353,"MEAN_MOTION_DOT":0.00024322,"MEAN_MOTION_DDOT":0}]
